[{"OBJECT_NAME":"LAPAN-A3","OBJECT_ID":"2016-040E","EPOCH":"2026-03-09T23:01:57.724896","MEAN_MOTION":15.3238951,"ECCENTRICITY":0.00109839,"INCLINATION":97.1488,"RA_OF_ASC_NODE":68.4254,"ARG_OF_PERICENTER":22.062,"MEAN_ANOMALY":338.1093,"EPHEMERIS_TYPE":0,"CLASSIFICATION_TYPE":"U","NORAD_CAT_ID":41603,"ELEMENT_SET_NO":999,"REV_AT_EPOCH":53961,"BSTAR":0.00017567445,"MEAN_MOTION_DOT":5.428e-5,"MEAN_MOTION_DDOT":0},{"OBJECT_NAME":"STARLINK-33593","OBJECT_ID":"2025-015Y","EPOCH":"2026-03-09T22:44:20.185440","MEAN_MOTION":15.30213377,"ECCENTRICITY":7.753e-5,"INCLINATION":53.1623,"RA_OF_ASC_NODE":321.0396,"ARG_OF_PERICENTER":86.5686,"MEAN_ANOMALY":273.5403,"EPHEMERIS_TYPE":0,"CLASSIFICATION_TYPE":"U","NORAD_CAT_ID":62780,"ELEMENT_SET_NO":999,"REV_AT_EPOCH":6452,"BSTAR":0.0012277943,"MEAN_MOTION_DOT":0.00036197,"MEAN_MOTION_DDOT":0}]
